{"type":"FeatureCollection","features":[{"type":"Feature","properties":{"nama":""},"geometry":{"coordinates":[[[106.93983893732968,-6.902956480403631],[106.93983893732968,-6.902848857185177],[106.93959501697367,-6.902848857185177],[106.93959501697367,-6.902956480403631],[106.93983893732968,-6.902956480403631]]],"type":"Polygon"},"id":1},{"type":"Feature","properties":{"nama":"Assalfiah1"},"geometry":{"coordinates":[106.8699350915117,-6.905638299470041],"type":"Point"},"id":1},{"type":"Feature","properties":{},"geometry":{"coordinates":[[[106.86999228907615,-6.905619371927074],[106.8699655968149,-6.905733271311277],[106.8701219368935,-6.905759435726736],[106.8701486290903,-6.905638299470496],[106.86999228907615,-6.905619371927074]]],"type":"Polygon"},"id":2},{"type":"Feature","properties":{"nama":"Universitas Nusa Putra"},"geometry":{"coordinates":[106.87300093303128,-6.905513175660246],"type":"Point"},"id":3},{"type":"Feature","properties":{"nama":"Universitas Nusa Putra"},"geometry":{"coordinates":[[[106.87300947867789,-6.905492854371644],[106.87314196340435,-6.905492854371644],[106.87314196340435,-6.905212207052273],[106.87300947867789,-6.905212207052273],[106.87300947867789,-6.905492854371644]]],"type":"Polygon"},"id":4},{"type":"Feature","properties":{},"geometry":{"coordinates":[[106.87296609006677,-6.905514211209578],[106.86991160775779,-6.905652547156208]],"type":"LineString"}},{"type":"Feature","properties":{"nama":"Masjid Raudhatul Irfan"},"geometry":{"coordinates":[106.87305092379586,-6.905721233570745],"type":"Point"},"id":6},{"type":"Feature","properties":{"nama":"Masjid Raudhatul Irfan"},"geometry":{"coordinates":[[[106.87302531385058,-6.905741573576151],[106.87302531385058,-6.905956377605207],[106.8734227055275,-6.905956377605207],[106.8734227055275,-6.905741573576151],[106.87302531385058,-6.905741573576151]]],"type":"Polygon"},"id":7},{"type":"Feature","properties":{},"geometry":{"coordinates":[[106.87296456083936,-6.905519712012065],[106.87302210420114,-6.90567305000728]],"type":"LineString"}},{"type":"Feature","properties":{"nama":"Pom"},"geometry":{"coordinates":[106.86943042898798,-6.905762622138795],"type":"Point"},"id":9},{"type":"Feature","properties":{"nama":"Pom"},"geometry":{"coordinates":[[[106.8694068704167,-6.905756775223111],[106.86915950543113,-6.905756775223111],[106.86915950543113,-6.90601403940299],[106.8694068704167,-6.90601403940299],[106.8694068704167,-6.905756775223111]]],"type":"Polygon"},"id":10},{"type":"Feature","properties":{},"geometry":{"coordinates":[[106.87299630848315,-6.905691159970672],[106.86944191473196,-6.905748919920143],[106.86988621395074,-6.905649152729282]],"type":"LineString"}}]}