{
  "type": "FeatureCollection",
  "features": [
    {
      "type": "Feature",
      "properties": {
        "name": "Nusa Putra University"
      },
      "geometry": {
        "coordinates": [
          106.87321616817877,
          -6.905379669064089
        ],
        "type": "Point"
      },
      "id": 0
    },
    {
      "type": "Feature",
      "properties": {
        "name": "Mesjid RI"
      },
      "geometry": {
        "coordinates": [
          106.87318777601035,
          -6.905971579172743
        ],
        "type": "Point"
      },
      "id": 1
    },
    {
      "type": "Feature",
      "properties": {
        "name": "Campus Area"
      },
      "geometry": {
        "coordinates": [
          [
            [
              106.87297532968961,
              -6.9055810692645
            ],
            [
              106.87344558035494,
              -6.9055477235994545
            ],
            [
              106.87342458702102,
              -6.905397668077725
            ],
            [
              106.87345817635418,
              -6.905139239012087
            ],
            [
              106.87349176568733,
              -6.9049850151469485
            ],
            [
              106.87325244168937,
              -6.9049391647998135
            ],
            [
              106.87304670702315,
              -6.904976678720416
            ],
            [
              106.87301731635608,
              -6.905076715829196
            ],
            [
              106.87301731635608,
              -6.905280958194609
            ],
            [
              106.87297532968961,
              -6.9055810692645
            ]
          ]
        ],
        "type": "Polygon"
      },
      "id": 2
    }
  ]
}