{"type": "FeatureCollection","features": [
    {
      "type": "Feature",
      "properties": {
        "Nama": "Air penyebab banjir"
      },
      "geometry": {
        "coordinates": [106.79625880086633, -6.156737738401304],
        "type": "Point"
      },
      "id": 0
    },
    {
      "type": "Feature",
      "properties": {
        "Nama": "Area Rawan Banjir"
      },
      "geometry": {
        "coordinates": [106.79808154247416, -6.156730766483946],
        "type": "Point"
      },
      "id": 1
    },
    {
      "type": "Feature",
      "properties": {},
      "geometry": {
        "coordinates": [
          [106.79595494910154, -6.156578550210654],
          [106.79613267091679, -6.157040280120384],
          [106.79663278905008, -6.1568290203419735],
          [106.79646072244537, -6.156423711533336],
          [106.79595435179897, -6.156578140058883]
        ],
        "type": "LineString"
      }
    },
    {
      "type": "Feature",
      "properties": {},
      "geometry": {
        "coordinates": [
          [
            [106.79685616224253, -6.156443912577032],
            [106.79685616224253, -6.157068626158178],
            [106.79865626487344, -6.157068626158178],
            [106.79865626487344, -6.156443912577032],
            [106.79685616224253, -6.156443912577032]
          ]
        ],
        "type": "Polygon"
      }
    },
    {
      "type": "Feature",
      "properties": {},
      "geometry": {
        "coordinates": [
          [
            [106.79783934109548, -6.15737274316713],
            [106.79783934109548, -6.157426452152336],
            [106.79792637433223, -6.157426452152336],
            [106.79792637433223, -6.15737274316713],
            [106.79783934109548, -6.15737274316713]
          ]
        ],
        "type": "Polygon"
      }
    },
    {
      "type": "Feature",
      "properties": {
        "Nama": "Pos Evakuasi"
      },
      "geometry": {
        "coordinates": [106.79788028011603, -6.157392645714637],
        "type": "Point"
      },
      "id": 5
    },
    {
      "type": "Feature",
      "properties": {},
      "geometry": {
        "coordinates": [
          [
            [106.79625920548068, -6.156733721383148],
            [106.79787902496003, -6.157391565040157],
            [106.7980756504461, -6.1567244122689],
            [106.79625920548068, -6.156733721383148]
          ]
        ],
        "type": "Polygon"
      }
    }
  ]
}
