{
  "type": "FeatureCollection",
  "features": [
    {
      "type": "Feature",
      "properties": { "Nama": "Air Banjir" },
      "geometry": {
        "coordinates": [
          [
            [106.79605615430489, -6.156642920312251],
            [106.79613735449834, -6.156827822290225],
            [106.79644381974578, -6.156721047916179],
            [106.79633380657901, -6.156530937392176],
            [106.79605615430489, -6.156642920312251]
          ]
        ],
        "type": "Polygon"
      }
    },
    {
      "type": "Feature",
      "properties": { "Nama": "Area Rawan Banjir" },
      "geometry": {
        "coordinates": [
          [
            [106.79796678891216, -6.156658546023479],
            [106.79796416955196, -6.156809592710118],
            [106.79823658310346, -6.156791362940325],
            [106.79823658310346, -6.156650733261969],
            [106.79796678891216, -6.156658546023479]
          ]
        ],
        "type": "Polygon"
      },
      "id": 4
    },
    {
      "type": "Feature",
      "properties": { "nama": "Posko Evakuasi" },
      "geometry": {
        "coordinates": [
          [
            [106.79780438852538, -6.157322630274535],
            [106.79780700788575, -6.157473676772355],
            [106.79804013102273, -6.157460655524133],
            [106.79804013102273, -6.157296587770347],
            [106.79780438852538, -6.157322630274535]
          ]
        ],
        "type": "Polygon"
      },
      "id": 5
    }
  ]
}

