{"type":"FeatureCollection","features":[{"type":"Feature","properties":{"nama":"Arus Banjir"},"geometry":{"coordinates":[[106.79624323539997,-6.156695247221123],[106.79810149128383,-6.15673070104144]],"type":"LineString"},"id":3},{"type":"Feature","properties":{"nama":"Jalur Posko Evakuasi"},"geometry":{"coordinates":[[106.79809752911746,-6.15673070104144],[106.79788357215045,-6.157392505254137]],"type":"LineString"},"id":1},{"type":"Feature","properties":{"nama":"Jarak sumber air dengan posko evakuasi"},"geometry":{"coordinates":[[106.79625512189921,-6.156695247221123],[106.79787564781759,-6.157400383870623]],"type":"LineString"},"id":2}]}
